NORAD_CAT_ID,OBJECT_NAME,OBJECT_TYPE,EPOCH,MEAN_MOTION,ECCENTRICITY,INCLINATION,RA_OF_ASC_NODE,ARG_OF_PERICENTER,MEAN_ANOMALY,BSTAR,MEAN_MOTION_DOT,MEAN_MOTION_DDOT,TLE_LINE0,TLE_LINE1,TLE_LINE2,SEMIMAJOR_AXIS,PERIOD,APOGEE,PERIGEE,DECAYED
50821.0,STARLINK-3346,PAYLOAD,2022-01-11 20:00:01,15.94719268,0.0053995,53.2176,175.5781,179.3857,216.1271,-0.0020092,-0.0091678,0.00026872,0 STARLINK-3346,1 50821U 22001U   22011.83334491 -.00916780  26872-3 -20092-2 0  9998,2 50821  53.2176 175.5781 0053995 179.3857 216.1271 15.94719268  2056,6667.234,90.298,325.098,253.099,0.0
50821.0,STARLINK-3346,PAYLOAD,2022-01-12 06:00:00,15.93970221,0.0050436,53.2174,173.4487,181.3232,87.1118,-0.0020568,-0.00882776,0.00024913,0 STARLINK-3346,1 50821U 22001U   22012.25001157 -.00882776  24913-3 -20568-2 0  9994,2 50821  53.2174 173.4487 0050436 181.3232  87.1118 15.93970221  2111,6669.321999999999,90.34,324.825,257.55,0.0
50821.0,STARLINK-3346,PAYLOAD,2022-01-12 14:00:01,15.93405005,0.004743,53.2177,171.7493,182.9343,199.0326,-0.0022576,-0.00924638,0.00026932,0 STARLINK-3346,1 50821U 22001U   22012.58334491 -.00924638  26932-3 -22576-2 0  9998,2 50821  53.2177 171.7493 0047430 182.9343 199.0326 15.93405005  1422,6670.899,90.373,324.404,261.124,0.0
50821.0,STARLINK-3346,PAYLOAD,2022-01-12 16:00:00,15.93234121,0.0046715,53.2175,171.3251,182.9524,317.2977,-0.002161,-0.0087426,0.00024303,0 STARLINK-3346,1 50821U 22001U   22012.66667824 -.00874260  24303-3 -21610-2 0  9999,2 50821  53.2175 171.3251 0046715 182.9524 317.2977 15.93234121  2183,6671.376,90.382,324.407,262.076,0.0
50821.0,STARLINK-3346,PAYLOAD,2022-01-12 22:00:00,15.92794794,0.0044483999999999,53.2173,170.0519,185.4237,309.3865,-0.0022353,-0.00873895,0.00024179,0 STARLINK-3346,1 50821U 22001U   22012.91667824 -.00873895  24179-3 -22353-2 0  9996,2 50821  53.2173 170.0519 0044484 185.4237 309.3865 15.92794794  2223,6672.603,90.407,324.15,264.786,0.0
50821.0,STARLINK-3346,PAYLOAD,2022-01-13 14:00:01,15.91645671,0.0038911,53.2174,166.6578,188.3048,170.0577,-0.0025674,-0.0092181,0.00026325,0 STARLINK-3346,1 50821U 22001U   22013.58334491 -.00921810  26325-3 -25674-2 0  9996,2 50821  53.2174 166.6578 0038911 188.3048 170.0577 15.91645671  2322,6675.814,90.472,323.656,271.703,0.0
50821.0,STARLINK-3346,PAYLOAD,2022-01-13 22:00:00,15.9104641,0.0036047,53.2172,164.9647,190.9194,278.1704,-0.0025936,-0.00893184,0.00024724,0 STARLINK-3346,1 50821U 22001U   22013.91667824 -.00893184  24724-3 -25936-2 0  9996,2 50821  53.2172 164.9647 0036047 190.9194 278.1704 15.91046410  1638,6677.49,90.506,323.426,275.285,0.0
50821.0,STARLINK-3346,PAYLOAD,2022-01-14 06:00:00,15.90448798,0.0033227,53.2175,163.2696,193.4713,25.6437,-0.0026282,-0.00869396,0.00023415,0 STARLINK-3346,1 50821U 22001U   22014.25001157 -.00869396  23415-3 -26282-2 0  9994,2 50821  53.2175 163.2696 0033227 193.4713  25.6437 15.90448798  2430,6679.163000000001,90.54,323.221,278.835,0.0
50821.0,STARLINK-3346,PAYLOAD,2022-01-14 14:00:01,15.89884777,0.0030483,53.2176,161.5795,195.9123,132.5098,-0.002872,-0.00914807,0.00025529,0 STARLINK-3346,1 50821U 22001U   22014.58334491 -.00914807  25529-3 -28720-2 0  9995,2 50821  53.2176 161.5795 0030483 195.9123 132.5098 15.89884777  2480,6680.743,90.573,322.973,282.243,0.0
50821.0,STARLINK-3346,PAYLOAD,2022-01-14 22:00:00,15.89299169,0.002776,53.2171,159.8904,199.14,237.8925,-0.0029799,-0.00914428,0.00025368,0 STARLINK-3346,1 50821U 22001U   22014.91667824 -.00914428  25368-3 -29799-2 0  9998,2 50821  53.2171 159.8904 0027760 199.1400 237.8925 15.89299169  2545,6682.384,90.606,322.7990000000001,285.698,0.0
50821.0,STARLINK-3346,PAYLOAD,2022-01-15 04:00:00,15.88859317,0.0025573,53.2174,158.6223,201.8471,226.1833,-0.0030624,-0.00914127,0.00025248,0 STARLINK-3346,1 50821U 22001U   22015.16667824 -.00914127  25248-3 -30624-2 0  9998,2 50821  53.2174 158.6223 0025573 201.8471 226.1833 15.88859317  2587,6683.6169999999975,90.631,322.574,288.39,0.0
50821.0,STARLINK-3346,PAYLOAD,2022-01-15 14:00:01,15.88119389,0.0022622,53.2175,156.5142,204.7503,87.4625,-0.0031455,-0.00898965,0.00024329,0 STARLINK-3346,1 50821U 22001U   22015.58335648 -.00898965  24329-3 -31455-2 0  9993,2 50821  53.2175 156.5142 0022622 204.7503  87.4625 15.88119389  2647,6685.693,90.673,322.682,292.433,0.0
50821.0,STARLINK-3346,PAYLOAD,2022-01-15 22:00:01,15.87546889,0.0019908,53.2171,154.8291,210.2944,188.4124,-0.0033505,-0.00925634,0.00025511,0 STARLINK-3346,1 50821U 22001U   22015.91668981 -.00925634  25511-3 -33505-2 0  9995,2 50821  53.2171 154.8291 0019908 210.2944 188.4124 15.87546889  2704,6687.3,90.706,322.478,295.8520000000001,0.0
50821.0,STARLINK-3346,PAYLOAD,2022-01-16 06:00:00,15.86942799,0.0016912,53.2172,153.1431,216.0398,288.4037,-0.0033298,-0.00888884,0.0002358,0 STARLINK-3346,1 50821U 22001U   22016.25001157 -.00888884  23580-3 -33298-2 0  9997,2 50821  53.2172 153.1431 0016912 216.0398 288.4037 15.86942799  2750,6688.996999999999,90.741,322.1740000000001,299.5490000000001,0.0
50821.0,STARLINK-3346,PAYLOAD,2022-01-16 14:00:01,15.86353002,0.0014882,53.2173,151.4621,221.0306,28.5045,-0.0034069,-0.00808147,0.0,0 STARLINK-3346,1 50821U 22001U   22016.58334491 -.00808147  00000-0 -34069-2 0  9993,2 50821  53.2173 151.4621 0014882 221.0306  28.5045 15.86353002  2061,6690.655,90.774,322.4770000000001,302.563,0.0
50821.0,STARLINK-3346,PAYLOAD,2022-01-16 22:00:00,15.85786873,0.0012865,53.217,149.7813,231.5211,122.3935,-0.0036689,-0.00840783,0.0,0 STARLINK-3346,1 50821U 22001U   22016.91667824 -.00840783  00000-0 -36689-2 0  9991,2 50821  53.2170 149.7813 0012865 231.5211 122.3935 15.85786873  2113,6692.246999999999,90.807,322.722,305.502,0.0
50821.0,STARLINK-3346,PAYLOAD,2022-01-17 06:00:00,15.85194774,0.0010739,53.2173,148.0994,243.3014,214.3002,-0.0037396,-0.0083109,0.0,0 STARLINK-3346,1 50821U 22001U   22017.25001157 -.00831090  00000-0 -37396-2 0  9997,2 50821  53.2173 148.0994 0010739 243.3014 214.3002 15.85194774  2916,6693.913000000001,90.841,322.967,308.59,0.0
50821.0,STARLINK-3346,PAYLOAD,2022-01-17 14:00:01,15.84594164,0.0009279,53.2175,146.4228,256.9973,303.5873,-0.0037226,-0.0080457,0.0,0 STARLINK-3346,1 50821U 22001U   22017.58334491 -.00804570  00000-0 -37226-2 0  9998,2 50821  53.2175 146.4228 0009279 256.9973 303.5873 15.84594164  2228,6695.605,90.875,323.683,311.257,0.0
50821.0,STARLINK-3346,PAYLOAD,2022-01-17 22:00:00,15.84013786,0.0008118,53.2171,144.7461,265.7396,37.1173,-0.0038704,-0.0081179,0.0,0 STARLINK-3346,1 50821U 22001U   22017.91667824 -.00811790  00000-0 -38704-2 0  9998,2 50821  53.2171 144.7461 0008118 265.7396  37.1173 15.84013786  2276,6697.24,90.908,324.5420000000001,313.668,0.0
50821.0,STARLINK-3346,PAYLOAD,2022-01-18 14:00:01,15.82856819,0.0002548,53.2171,141.3967,230.7678,274.5221,-0.0042507,-0.00837638,0.0,0 STARLINK-3346,1 50821U 22001U   22018.58334491 -.00837638  00000-0 -42507-2 0  9998,2 50821  53.2171 141.3967 0002548 230.7678 274.5221 15.82856819  3122,6700.503000000002,90.975,324.076,320.661,0.0
50821.0,STARLINK-3346,PAYLOAD,2022-01-18 22:00:00,15.82257934,0.0001918,53.2172,139.724,217.4675,27.9898,-0.0042426,-0.00814614,0.0,0 STARLINK-3346,1 50821U 22001U   22018.91667824 -.00814614  00000-0 -42426-2 0  9993,2 50821  53.2172 139.7240 0001918 217.4675  27.9898 15.82257934  2433,6702.194,91.009,325.344,322.773,0.0
50821.0,STARLINK-3346,PAYLOAD,2022-01-19 06:00:02,15.81594293,8.45e-05,53.2168,138.0509,63.478,281.5499,-0.0038162,-0.00717993,0.0,0 STARLINK-3346,1 50821U 22001U   22019.25002315 -.00717993  00000-0 -38162-2 0  9993,2 50821  53.2168 138.0509 0000845  63.4780 281.5499 15.81594293  3226,6704.069,91.047,326.5,325.367,0.0
50821.0,STARLINK-3346,PAYLOAD,2022-01-19 14:00:01,15.810921400000002,0.0001187,53.2175,136.3837,55.5184,28.1496,-0.0045388,-0.0082396,0.0,0 STARLINK-3346,1 50821U 22001U   22019.58334491 -.00823960  00000-0 -45388-2 0  9992,2 50821  53.2175 136.3837 0001187  55.5184  28.1496 15.81092140  3281,6705.488,91.076,328.149,326.557,0.0
50821.0,STARLINK-3346,PAYLOAD,2022-01-19 22:00:00,15.80506281,0.0001131,53.2172,134.7151,90.5017,91.2174,-0.0046665,-0.00824332,0.0,0 STARLINK-3346,1 50821U 22001U   22019.91667824 -.00824332  00000-0 -46665-2 0  9991,2 50821  53.2172 134.7151 0001131  90.5017  91.2174 15.80506281  2594,6707.145,91.11,329.769,328.251,0.0
50821.0,STARLINK-3346,PAYLOAD,2022-01-20 14:00:01,15.79334722,0.0001168,53.2174,131.3835,52.6046,323.1028,-0.0049224,-0.00823902,0.0,0 STARLINK-3346,1 50821U 22001U   22020.58334491 -.00823902  00000-0 -49224-2 0  9993,2 50821  53.2174 131.3835 0001168  52.6046 323.1028 15.79334722  3435,6710.4609999999975,91.178,333.11,331.543,0.0
50821.0,STARLINK-3346,PAYLOAD,2022-01-20 22:00:00,15.78748178,0.000103,53.2174,129.719,81.3028,30.3437,-0.0050473,-0.00822565,0.0,0 STARLINK-3346,1 50821U 22001U   22020.91667824 -.00822565  00000-0 -50473-2 0  9991,2 50821  53.2174 129.7190 0001030  81.3028  30.3437 15.78748178  2755,6712.123000000001,91.212,334.68,333.297,0.0
50821.0,STARLINK-3346,PAYLOAD,2022-01-21 12:00:00,15.77718991,0.0001377,53.2175,126.8109,51.6397,136.2063,-0.0052413999999999,-0.00816027,0.0,0 STARLINK-3346,1 50821U 22001U   22021.50001157 -.00816027  00000-0 -52414-2 0  9991,2 50821  53.2175 126.8109 0001377  51.6397 136.2063 15.77718991  3589,6715.042,91.271,337.832,335.982,0.0
50821.0,STARLINK-3346,PAYLOAD,2022-01-21 14:00:01,15.77575912,0.0001271,53.2175,126.3963,53.4327,247.9782,-0.0053174999999999,-0.0082194,0.0,0 STARLINK-3346,1 50821U 22001U   22021.58334491 -.00821940  00000-0 -53175-2 0  9994,2 50821  53.2175 126.3963 0001271  53.4327 247.9782 15.77575912  2860,6715.448,91.279,338.167,336.46,0.0
50821.0,STARLINK-3346,PAYLOAD,2022-01-21 22:00:00,15.76989872,0.0001002,53.2173,124.7361,67.2656,327.9718,-0.0054518,-0.00820844,0.0,0 STARLINK-3346,1 50821U 22001U   22021.91667824 -.00820844  00000-0 -54518-2 0  9994,2 50821  53.2173 124.7361 0001002  67.2656 327.9718 15.76989872  2919,6717.111999999999,91.313,339.65,338.3040000000001,0.0
